{
  "type": "FeatureCollection",
  "features": [
    {
      "type": "Feature",
      "properties": {
        "norad_id": 31736,
        "name": "FENGYUN 1C DEB",
        "group": "fengyun-1c-debris",
        "lat": -5.636989604163999,
        "lon": 176.64793542784577,
        "alt_km": 841.4914068842363,
        "timestamp": "2025-12-21T20:41:08.243906+00:00",
        "meta_object_name": "FENGYUN 1C DEB",
        "meta_object_id": "1999-025CEK",
        "meta_epoch": "2025-12-18T20:29:32.925120",
        "meta_mean_motion": 14.14187403,
        "meta_eccentricity": 0.00112563,
        "meta_inclination": 98.678,
        "meta_ra_of_asc_node": 354.5904,
        "meta_arg_of_pericenter": 221.9883,
        "meta_mean_anomaly": 138.0428,
        "meta_ephemeris_type": 0,
        "meta_classification_type": "U",
        "meta_norad_cat_id": 31736,
        "meta_element_set_no": 999,
        "meta_rev_at_epoch": 64151,
        "meta_bstar": 0.00013491285,
        "meta_mean_motion_dot": 2.15e-06,
        "meta_mean_motion_ddot": 0,
        "tle_line1": "1 31736U 99025CEK 25352.85385330  .00000215  00000+0  13491-3 0  9995",
        "tle_line2": "2 31736  98.6780 354.5904 0011256 221.9883 138.0428 14.14187403641514"
      },
      "geometry": {
        "type": "Point",
        "coordinates": [
          176.64793542784577,
          -5.636989604163999
        ]
      }
    },
    {
      "type": "Feature",
      "properties": {
        "norad_id": 31737,
        "name": "FENGYUN 1C DEB",
        "group": "fengyun-1c-debris",
        "lat": 79.15847065688389,
        "lon": -104.30972298299092,
        "alt_km": 693.2148764707654,
        "timestamp": "2025-12-21T20:41:08.243915+00:00",
        "meta_object_name": "FENGYUN 1C DEB",
        "meta_object_id": "1999-025CEL",
        "meta_epoch": "2025-12-20T21:54:49.279104",
        "meta_mean_motion": 14.68798993,
        "meta_eccentricity": 0.0148073,
        "meta_inclination": 97.9162,
        "meta_ra_of_asc_node": 28.1733,
        "meta_arg_of_pericenter": 349.636,
        "meta_mean_anomaly": 132.0901,
        "meta_ephemeris_type": 0,
        "meta_classification_type": "U",
        "meta_norad_cat_id": 31737,
        "meta_element_set_no": 999,
        "meta_rev_at_epoch": 98319,
        "meta_bstar": 0.00039482,
        "meta_mean_motion_dot": 2.667e-05,
        "meta_mean_motion_ddot": 0,
        "tle_line1": "1 31737U 99025CEL 25354.91307036  .00002667  00000+0  39482-3 0  9993",
        "tle_line2": "2 31737  97.9162  28.1733 0148073 349.6360 132.0901 14.68798993983195"
      },
      "geometry": {
        "type": "Point",
        "coordinates": [
          -104.30972298299092,
          79.15847065688389
        ]
      }
    },
    {
      "type": "Feature",
      "properties": {
        "norad_id": 31738,
        "name": "FENGYUN 1C DEB",
        "group": "fengyun-1c-debris",
        "lat": -78.47308798574761,
        "lon": -170.87446284926997,
        "alt_km": 1176.107154953611,
        "timestamp": "2025-12-21T20:41:08.243924+00:00",
        "meta_object_name": "FENGYUN 1C DEB",
        "meta_object_id": "1999-025CEM",
        "meta_epoch": "2025-12-19T22:21:26.675136",
        "meta_mean_motion": 13.85081508,
        "meta_eccentricity": 0.0306955,
        "meta_inclination": 99.3603,
        "meta_ra_of_asc_node": 61.1713,
        "meta_arg_of_pericenter": 81.0657,
        "meta_mean_anomaly": 282.511,
        "meta_ephemeris_type": 0,
        "meta_classification_type": "U",
        "meta_norad_cat_id": 31738,
        "meta_element_set_no": 999,
        "meta_rev_at_epoch": 62357,
        "meta_bstar": 0.00077972,
        "meta_mean_motion_dot": 1.232e-05,
        "meta_mean_motion_ddot": 0,
        "tle_line1": "1 31738U 99025CEM 25353.93155874  .00001232  00000+0  77972-3 0  9999",
        "tle_line2": "2 31738  99.3603  61.1713 0306955  81.0657 282.5110 13.85081508623579"
      },
      "geometry": {
        "type": "Point",
        "coordinates": [
          -170.87446284926997,
          -78.47308798574761
        ]
      }
    },
    {
      "type": "Feature",
      "properties": {
        "norad_id": 31739,
        "name": "FENGYUN 1C DEB",
        "group": "fengyun-1c-debris",
        "lat": -41.37256416194389,
        "lon": -136.71460927600793,
        "alt_km": 925.3827111345136,
        "timestamp": "2025-12-21T20:41:08.243933+00:00",
        "meta_object_name": "FENGYUN 1C DEB",
        "meta_object_id": "1999-025CEN",
        "meta_epoch": "2025-12-21T09:29:52.738656",
        "meta_mean_motion": 14.19221447,
        "meta_eccentricity": 0.01281959,
        "meta_inclination": 98.7464,
        "meta_ra_of_asc_node": 50.6181,
        "meta_arg_of_pericenter": 53.5186,
        "meta_mean_anomaly": 307.7722,
        "meta_ephemeris_type": 0,
        "meta_classification_type": "U",
        "meta_norad_cat_id": 31739,
        "meta_element_set_no": 999,
        "meta_rev_at_epoch": 95609,
        "meta_bstar": 8.3680758e-05,
        "meta_mean_motion_dot": 1.47e-06,
        "meta_mean_motion_ddot": 0,
        "tle_line1": "1 31739U 99025CEN 25355.39574929  .00000147  00000+0  83681-4 0  9997",
        "tle_line2": "2 31739  98.7464  50.6181 0128195  53.5186 307.7722 14.19221447956090"
      },
      "geometry": {
        "type": "Point",
        "coordinates": [
          -136.71460927600793,
          -41.37256416194389
        ]
      }
    },
    {
      "type": "Feature",
      "properties": {
        "norad_id": 31740,
        "name": "FENGYUN 1C DEB",
        "group": "fengyun-1c-debris",
        "lat": -30.602373332675935,
        "lon": -17.314596141628936,
        "alt_km": 774.0613693375217,
        "timestamp": "2025-12-21T20:41:08.243942+00:00",
        "meta_object_name": "FENGYUN 1C DEB",
        "meta_object_id": "1999-025CEP",
        "meta_epoch": "2025-12-14T23:34:19.860384",
        "meta_mean_motion": 14.42186075,
        "meta_eccentricity": 0.00242908,
        "meta_inclination": 99.8218,
        "meta_ra_of_asc_node": 160.6587,
        "meta_arg_of_pericenter": 61.8964,
        "meta_mean_anomaly": 89.7364,
        "meta_ephemeris_type": 0,
        "meta_classification_type": "U",
        "meta_norad_cat_id": 31740,
        "meta_element_set_no": 999,
        "meta_rev_at_epoch": 65107,
        "meta_bstar": 0.00089360339,
        "meta_mean_motion_dot": 2.898e-05,
        "meta_mean_motion_ddot": 0,
        "tle_line1": "1 31740U 99025CEP 25348.98217431  .00002898  00000+0  89360-3 0  9992",
        "tle_line2": "2 31740  99.8218 160.6587 0024290  61.8964  89.7364 14.42186075651072"
      },
      "geometry": {
        "type": "Point",
        "coordinates": [
          -17.314596141628936,
          -30.602373332675935
        ]
      }
    },
    {
      "type": "Feature",
      "properties": {
        "norad_id": 31742,
        "name": "FENGYUN 1C DEB",
        "group": "fengyun-1c-debris",
        "lat": -52.761338967215934,
        "lon": 24.122944778513713,
        "alt_km": 746.0922679053683,
        "timestamp": "2025-12-21T20:41:08.243951+00:00",
        "meta_object_name": "FENGYUN 1C DEB",
        "meta_object_id": "1999-025CER",
        "meta_epoch": "2025-12-20T20:14:50.442432",
        "meta_mean_motion": 14.39825178,
        "meta_eccentricity": 0.00761534,
        "meta_inclination": 98.9191,
        "meta_ra_of_asc_node": 214.9865,
        "meta_arg_of_pericenter": 305.5441,
        "meta_mean_anomaly": 53.8661,
        "meta_ephemeris_type": 0,
        "meta_classification_type": "U",
        "meta_norad_cat_id": 31742,
        "meta_element_set_no": 999,
        "meta_rev_at_epoch": 96766,
        "meta_bstar": 0.00042041595,
        "meta_mean_motion_dot": 1.315e-05,
        "meta_mean_motion_ddot": 0,
        "tle_line1": "1 31742U 99025CER 25354.84363938  .00001315  00000+0  42042-3 0  9999",
        "tle_line2": "2 31742  98.9191 214.9865 0076153 305.5441  53.8661 14.39825178967666"
      },
      "geometry": {
        "type": "Point",
        "coordinates": [
          24.122944778513713,
          -52.761338967215934
        ]
      }
    },
    {
      "type": "Feature",
      "properties": {
        "norad_id": 31743,
        "name": "FENGYUN 1C DEB",
        "group": "fengyun-1c-debris",
        "lat": 38.11675356283832,
        "lon": -83.00404647396998,
        "alt_km": 808.2449426310295,
        "timestamp": "2025-12-21T20:41:08.243959+00:00",
        "meta_object_name": "FENGYUN 1C DEB",
        "meta_object_id": "1999-025CES",
        "meta_epoch": "2025-12-19T07:08:16.584288",
        "meta_mean_motion": 14.31339819,
        "meta_eccentricity": 0.0037408,
        "meta_inclination": 99.1437,
        "meta_ra_of_asc_node": 281.5575,
        "meta_arg_of_pericenter": 199.3916,
        "meta_mean_anomaly": 312.6055,
        "meta_ephemeris_type": 0,
        "meta_classification_type": "U",
        "meta_norad_cat_id": 31743,
        "meta_element_set_no": 999,
        "meta_rev_at_epoch": 95734,
        "meta_bstar": 0.00096288,
        "meta_mean_motion_dot": 2.522e-05,
        "meta_mean_motion_ddot": 0,
        "tle_line1": "1 31743U 99025CES 25353.29741417  .00002522  00000+0  96288-3 0  9992",
        "tle_line2": "2 31743  99.1437 281.5575 0037408 199.3916 312.6055 14.31339819957348"
      },
      "geometry": {
        "type": "Point",
        "coordinates": [
          -83.00404647396998,
          38.11675356283832
        ]
      }
    }
  ]
}